NORAD_CAT_ID,OBJECT_NAME,OBJECT_TYPE,EPOCH,MEAN_MOTION,ECCENTRICITY,INCLINATION,RA_OF_ASC_NODE,ARG_OF_PERICENTER,MEAN_ANOMALY,BSTAR,MEAN_MOTION_DOT,MEAN_MOTION_DDOT,TLE_LINE0,TLE_LINE1,TLE_LINE2,SEMIMAJOR_AXIS,PERIOD,APOGEE,PERIGEE,DECAYED
53264.0,STARLINK-3950,PAYLOAD,2023-01-18 22:02:21,15.08865167,0.0001216,53.218,297.6876,89.5373,270.5759,0.00076807,0.00011965,0.0,0 STARLINK-3950,1 53264U 22086Y   23018.91830631  .00011965  00000-0  76807-3 0  9996,2 53264  53.2180 297.6876 0001216  89.5373 270.5759 15.08865167 28092,6917.803000000001,95.436,540.51,538.827,0.0
53264.0,STARLINK-3950,PAYLOAD,2023-01-19 01:13:07,15.08889275,0.000128,53.2181,297.092,81.1315,278.9822,0.001447,0.00022847,0.0,0 STARLINK-3950,1 53264U 22086Y   23019.05078053  .00022847  00000-0  14470-2 0  9992,2 53264  53.2181 297.0920 0001280  81.1315 278.9822 15.08889275 27933,6917.73,95.434,540.48,538.7090000000001,0.0
53264.0,STARLINK-3950,PAYLOAD,2023-01-19 13:56:12,15.08860598,0.0001078,53.2181,294.7111,107.4371,252.6739,0.0001239,1.686e-05,0.0,0 STARLINK-3950,1 53264U 22086Y   23019.58069800  .00001686  00000-0  12390-3 0  9998,2 53264  53.2181 294.7111 0001078 107.4371 252.6739 15.08860598 28011,6917.816999999999,95.436,540.428,538.937,0.0
53264.0,STARLINK-3950,PAYLOAD,2023-01-20 01:03:54,15.08844992,0.0001038,53.2181,292.6302,98.8868,261.2242,5.8323e-05,6.41e-06,0.0,0 STARLINK-3950,1 53264U 22086Y   23020.04437971  .00000641  00000-0  58323-4 0  9996,2 53264  53.2181 292.6302 0001038  98.8868 261.2242 15.08844992 28082,6917.865,95.437,540.448,539.012,0.0
53264.0,STARLINK-3950,PAYLOAD,2023-01-20 10:36:13,15.08829586,0.0001943,53.2185,290.8461,105.0969,255.0239,0.00021888,3.196e-05,0.0,0 STARLINK-3950,1 53264U 22086Y   23020.44182623  .00003196  00000-0  21888-3 0  9994,2 53264  53.2185 290.8461 0001943 105.0969 255.0239 15.08829586 28146,6917.911999999999,95.438,541.121,538.433,0.0
53264.0,STARLINK-3950,PAYLOAD,2023-01-22 02:20:52,15.08873412,0.0001074,53.2174,283.4143,84.7153,275.3962,0.0025276,0.00040205,0.0,0 STARLINK-3950,1 53264U 22086Y   23022.09783097  .00040205  00000-0  25276-2 0  9995,2 53264  53.2174 283.4143 0001074  84.7153 275.3962 15.08873412 28394,6917.778,95.435,540.386,538.9,0.0
53264.0,STARLINK-3950,PAYLOAD,2023-01-22 10:17:48,15.088532,0.0001057,53.2175,281.9263,108.5528,251.5579,0.00093553,0.00014638,0.0,0 STARLINK-3950,1 53264U 22086Y   23022.42903059  .00014638  00000-0  93553-3 0  9999,2 53264  53.2175 281.9263 0001057 108.5528 251.5579 15.08853200 28442,6917.84,95.437,540.436,538.974,0.0
53264.0,STARLINK-3950,PAYLOAD,2023-01-23 03:47:03,15.08846816,0.0001421,53.2173,278.6554,98.6754,261.4399,0.0013917,0.00021934,0.0,0 STARLINK-3950,1 53264U 22086Y   23023.15767613  .00021934  00000-0  13917-2 0  9996,2 53264  53.2173 278.6554 0001421  98.6754 261.4399 15.08846816 28558,6917.86,95.437,540.7080000000001,538.742,0.0
53264.0,STARLINK-3950,PAYLOAD,2023-01-23 10:08:36,15.08837485,0.0001609,53.217,277.4658,91.1255,268.9921,0.00077921,0.00012134,0.0,0 STARLINK-3950,1 53264U 22086Y   23023.42263965  .00012134  00000-0  77921-3 0  9995,2 53264  53.2170 277.4658 0001609  91.1255 268.9921 15.08837485 28598,6917.888000000001,95.438,540.866,538.64,0.0
53264.0,STARLINK-3950,PAYLOAD,2023-01-25 01:53:14,15.08851581,0.0001247,53.2169,270.0316,78.7165,281.3967,0.00061101,9.453e-05,0.0,0 STARLINK-3950,1 53264U 22086Y   23025.07863582  .00009453  00000-0  61101-3 0  9992,2 53264  53.2169 270.0316 0001247  78.7165 281.3967 15.08851581 28845,6917.845,95.437,540.573,538.847,0.0
53264.0,STARLINK-3950,PAYLOAD,2023-01-25 09:50:09,15.08845268,0.0001409999999999,53.2165,268.5448,69.7799,290.3345,0.00034784,5.253e-05,0.0,0 STARLINK-3950,1 53264U 22086Y   23025.40983673  .00005253  00000-0  34784-3 0  9994,2 53264  53.2165 268.5448 0001410  69.7799 290.3345 15.08845268 28894,6917.8640000000005,95.437,540.705,538.754,0.0
53264.0,STARLINK-3950,PAYLOAD,2023-01-25 19:22:28,15.08844949,0.0001088,53.2162,266.7591,91.2617,268.85,0.00024596,3.629e-05,0.0,0 STARLINK-3950,1 53264U 22086Y   23025.80727513  .00003629  00000-0  24596-3 0  9992,2 53264  53.2162 266.7591 0001088  91.2617 268.8500 15.08844949 29136,6917.865,95.437,540.4830000000001,538.9780000000001,0.0
53264.0,STARLINK-3950,PAYLOAD,2023-01-26 01:44:00,15.08852938,0.0001097999999999,53.2168,265.5688,105.0986,255.0128,0.00060746,9.396e-05,0.0,0 STARLINK-3950,1 53264U 22086Y   23026.07223169  .00009396  00000-0  60746-3 0  9994,2 53264  53.2168 265.5688 0001098 105.0986 255.0128 15.08852938 29175,6917.840999999999,95.437,540.465,538.946,0.0
53264.0,STARLINK-3950,PAYLOAD,2023-01-26 22:24:01,15.08843508,0.0001057,53.2166,261.7045,79.0831,281.028,0.00013383,1.843e-05,0.0,0 STARLINK-3950,1 53264U 22086Y   23026.93335498  .00001843  00000-0  13383-3 0  9992,2 53264  53.2166 261.7045 0001057  79.0831 281.0280 15.08843508 29128,6917.87,95.437,540.466,539.003,0.0
53264.0,STARLINK-3950,PAYLOAD,2023-01-27 19:04:03,15.08835791,0.0001064,53.217,257.8403,83.0175,277.0939,1.0545e-05,-1.2e-06,0.0,0 STARLINK-3950,1 53264U 22086Y   23027.79447960 -.00000120  00000-0  10545-4 0  9991,2 53264  53.2170 257.8403 0001064  83.0175 277.0939 15.08835791 29256,6917.893,95.438,540.494,539.0219999999999,0.0
53264.0,STARLINK-3950,PAYLOAD,2023-01-27 20:39:26,15.08835657,0.0001065,53.217,257.543,82.6328,277.4785,1.2807e-05,-8.4e-07,0.0,0 STARLINK-3950,1 53264U 22086Y   23027.86071984 -.00000084  00000-0  12807-4 0  9990,2 53264  53.2170 257.5430 0001065  82.6328 277.4785 15.08835657 29444,6917.894,95.438,540.495,539.0219999999999,0.0
53264.0,STARLINK-3950,PAYLOAD,2023-01-28 01:25:35,15.08839048,0.0001065,53.217,256.6498,78.885,281.2262,5.8129e-05,6.37e-06,0.0,0 STARLINK-3950,1 53264U 22086Y   23028.05943879  .00000637  00000-0  58129-4 0  9993,2 53264  53.2170 256.6498 0001065  78.8850 281.2262 15.08839048 29479,6917.883,95.438,540.485,539.012,0.0
53264.0,STARLINK-3950,PAYLOAD,2023-01-28 22:05:36,15.08842756,9.41e-05,53.2164,252.7839,87.8258,272.2842,0.0001415,1.965e-05,0.0,0 STARLINK-3950,1 53264U 22086Y   23028.92055831  .00001965  00000-0  14150-3 0  9991,2 53264  53.2164 252.7839 0000941  87.8258 272.2842 15.08842756 29601,6917.872,95.437,540.388,539.086,0.0
53264.0,STARLINK-3950,PAYLOAD,2023-01-29 01:16:22,15.08843605,9.56e-05,53.2164,252.1892,87.5635,272.5467,0.00015506,2.181e-05,0.0,0 STARLINK-3950,1 53264U 22086Y   23029.05303792  .00002181  00000-0  15506-3 0  9995,2 53264  53.2164 252.1892 0000956  87.5635 272.5467 15.08843605 29448,6917.869,95.437,540.396,539.073,0.0
53264.0,STARLINK-3950,PAYLOAD,2023-01-29 13:59:27,15.0883677,9.78e-05,53.2159,249.8101,93.9581,266.1523,5.7275e-05,6.24e-06,0.0,0 STARLINK-3950,1 53264U 22086Y   23029.58296220  .00000624  00000-0  57275-4 0  9990,2 53264  53.2159 249.8101 0000978  93.9581 266.1523 15.08836770 29529,6917.89,95.438,540.432,539.079,0.0
53264.0,STARLINK-3950,PAYLOAD,2023-01-29 20:21:00,15.08837156,9.86e-05,53.216,248.6207,91.7147,268.3958,4.4516e-05,4.21e-06,0.0,0 STARLINK-3950,1 53264U 22086Y   23029.84792234  .00000421  00000-0  44516-4 0  9994,2 53264  53.2160 248.6207 0000986  91.7147 268.3958 15.08837156 29747,6917.889,95.438,540.436,539.072,0.0
53264.0,STARLINK-3950,PAYLOAD,2023-01-30 13:50:15,15.08835533,9.39e-05,53.2154,245.3494,87.0602,273.0498,2.5597e-05,1.2e-06,0.0,0 STARLINK-3950,1 53264U 22086Y   23030.57656500  .00000120  00000-0  25597-4 0  9995,2 53264  53.2154 245.3494 0000939  87.0602 273.0498 15.08835533 29855,6917.894,95.438,540.409,539.109,0.0
53264.0,STARLINK-3950,PAYLOAD,2023-01-30 21:47:10,15.08840964,9.92e-05,53.2169,243.8629,86.5925,273.5181,5.4094e-05,5.73e-06,0.0,0 STARLINK-3950,1 53264U 22086Y   23030.90776560  .00000573  00000-0  54094-4 0  9997,2 53264  53.2169 243.8629 0000992  86.5925 273.5181 15.08840964 29729,6917.877,95.437,540.429,539.056,0.0
53264.0,STARLINK-3950,PAYLOAD,2023-01-31 13:41:02,15.0884002,0.0001031,53.2172,240.89,78.4541,281.6567,0.00011049,1.471e-05,0.0,0 STARLINK-3950,1 53264U 22086Y   23031.57016558  .00001471  00000-0  11049-3 0  9995,2 53264  53.2172 240.8900 0001031  78.4541 281.6567 15.08840020 30005,6917.88,95.438,540.459,539.032,0.0
53264.0,STARLINK-3950,PAYLOAD,2023-01-31 20:02:34,15.0884354,0.0001028,53.2172,239.7006,78.6018,281.5089,0.00012012,1.625e-05,0.0,0 STARLINK-3950,1 53264U 22086Y   23031.83512292  .00001625  00000-0  12012-3 0  9992,2 53264  53.2172 239.7006 0001028  78.6018 281.5089 15.08843540 30048,6917.87,95.437,540.446,539.023,0.0
53264.0,STARLINK-3950,PAYLOAD,2023-01-31 23:13:20,15.08845882,0.0001073,53.217,239.1058,78.9929,281.1183,0.00013889,1.924e-05,0.0,0 STARLINK-3950,1 53264U 22086Y   23031.96760100  .00001924  00000-0  13889-3 0  9994,2 53264  53.2170 239.1058 0001073  78.9929 281.1183 15.08845882 29883,6917.862,95.437,540.47,538.985,0.0
53264.0,STARLINK-3950,PAYLOAD,2023-02-01 13:31:51,15.08816057,0.0001137,53.217,236.4299,85.6258,274.4864,-0.00010157,-1.903e-05,0.0,0 STARLINK-3950,1 53264U 22086Y   23032.56379214 -.00001903  00000-0 -10157-3 0  9997,2 53264  53.2170 236.4299 0001137  85.6258 274.4864 15.08816057 30156,6917.954,95.439,540.605,539.032,0.0
53264.0,STARLINK-3950,PAYLOAD,2023-02-01 19:53:23,15.08833118,0.0001115,53.2169,235.2403,88.75,271.362,4.7847e-05,4.74e-06,0.0,0 STARLINK-3950,1 53264U 22086Y   23032.82874026  .00000474  00000-0  47847-4 0  9994,2 53264  53.2169 235.2403 0001115  88.7500 271.3620 15.08833118 30016,6917.901,95.438,540.538,538.995,0.0
53264.0,STARLINK-3950,PAYLOAD,2023-02-02 13:22:37,15.08840581,0.0001246,53.2178,231.9697,90.7038,269.4097,7.3223e-05,8.78e-06,0.0,0 STARLINK-3950,1 53264U 22086Y   23033.55737813  .00000878  00000-0  73223-4 0  9992,2 53264  53.2178 231.9697 0001246  90.7038 269.4097 15.08840581 30308,6917.879,95.438,540.606,538.882,0.0
